NORAD_CAT_ID,OBJECT_NAME,OBJECT_TYPE,EPOCH,MEAN_MOTION,ECCENTRICITY,INCLINATION,RA_OF_ASC_NODE,ARG_OF_PERICENTER,MEAN_ANOMALY,BSTAR,MEAN_MOTION_DOT,MEAN_MOTION_DDOT,TLE_LINE0,TLE_LINE1,TLE_LINE2,SEMIMAJOR_AXIS,PERIOD,APOGEE,PERIGEE,DECAYED
51887.0,STARLINK-3551,PAYLOAD,2022-03-28 06:00:00,15.73237288,0.0001304,53.2188,22.1744,82.4119,314.7235,-0.00034902,-0.00049394,0.0,0 STARLINK-3551,1 51887U 22022AM  22087.25001157 -.00049394  00000-0 -34902-3 0  9999,2 51887  53.2188  22.1744 0001304  82.4119 314.7235 15.73237288  5096,6727.7890000000025,91.531,350.531,348.777,0.0
51887.0,STARLINK-3551,PAYLOAD,2022-03-28 14:00:01,15.731717499999998,0.0001063,53.2186,20.5227,93.2949,32.8755,0.00033441,0.00046515,0.0,0 STARLINK-3551,1 51887U 22022AM  22087.58335648  .00046515  00000-0  33441-3 0  9997,2 51887  53.2186  20.5227 0001063  93.2949  32.8755 15.73171750  3707,6727.976,91.535,350.556,349.126,0.0
51887.0,STARLINK-3551,PAYLOAD,2022-03-28 22:00:00,15.73195257,0.0001240999999999,53.2182,18.8736,92.3324,122.6825,-6.4297e-05,-9.631e-05,0.0,0 STARLINK-3551,1 51887U 22022AM  22087.91667824 -.00009631  00000-0 -64297-4 0  9992,2 51887  53.2182  18.8736 0001241  92.3324 122.6825 15.73195257  5204,6727.909000000002,91.533,350.6090000000001,348.939,0.0
51887.0,STARLINK-3551,PAYLOAD,2022-03-29 14:00:01,15.73256358,0.0001175,53.2172,15.5657,95.1133,297.7747,-0.0029212,-0.00392955,0.0,0 STARLINK-3551,1 51887U 22022AM  22088.58334491 -.00392955  00000-0 -29212-2 0  9997,2 51887  53.2172  15.5657 0001175  95.1133 297.7747 15.73256358  3669,6727.734,91.53,350.39,348.809,0.0
51887.0,STARLINK-3551,PAYLOAD,2022-03-29 22:00:00,15.73163872,0.0001394,53.2173,13.9116,82.2605,39.3834,0.00048972,0.00068565,0.0,0 STARLINK-3551,1 51887U 22022AM  22088.91667824  .00068565  00000-0  48972-3 0  9993,2 51887  53.2173  13.9116 0001394  82.2605  39.3834 15.73163872  3694,6727.998000000001,91.535,350.801,348.925,0.0
51887.0,STARLINK-3551,PAYLOAD,2022-03-30 12:00:00,15.73204825,9.05e-05,53.2172,11.0387,97.8534,89.6601,0.00029679,0.00041245,0.0,0 STARLINK-3551,1 51887U 22022AM  22089.50001157  .00041245  00000-0  29679-3 0  9999,2 51887  53.2172  11.0387 0000905  97.8534  89.6601 15.73204825  5452,6727.880999999999,91.533,350.355,349.13800000000015,0.0
51887.0,STARLINK-3551,PAYLOAD,2022-03-30 14:00:01,15.73177643,8.98e-05,53.2174,10.6259,102.3552,197.4591,0.00067729,0.00095426,0.0,0 STARLINK-3551,1 51887U 22022AM  22089.58335648  .00095426  00000-0  67729-3 0  9990,2 51887  53.2174  10.6259 0000898 102.3552 197.4591 15.73177643  3675,6727.959,91.534,350.42800000000005,349.22,0.0
51887.0,STARLINK-3551,PAYLOAD,2022-03-30 22:00:00,15.73295338,8.66e-05,53.2177,8.9771,99.4313,289.2484,-0.00082703,-0.00115571,0.0,0 STARLINK-3551,1 51887U 22022AM  22089.91667824 -.00115571  00000-0 -82703-3 0  9996,2 51887  53.2177   8.9771 0000866  99.4313 289.2484 15.73295338  3722,6727.623000000001,91.528,350.071,348.906,0.0
51887.0,STARLINK-3551,PAYLOAD,2022-03-31 06:00:00,15.73206554,9.34e-05,53.2173,7.3266,83.0168,34.6617,-0.00047148,-0.00066285,0.0,0 STARLINK-3551,1 51887U 22022AM  22090.25001157 -.00066285  00000-0 -47148-3 0  9997,2 51887  53.2173   7.3266 0000934  83.0168  34.6617 15.73206554  5569,6727.876,91.533,350.37,349.11300000000006,0.0
51887.0,STARLINK-3551,PAYLOAD,2022-03-31 14:00:01,15.73124586,0.0001033,53.2173,5.6775,101.4291,105.1883,0.00077849,0.00109716,0.0,0 STARLINK-3551,1 51887U 22022AM  22090.58334491  .00109716  00000-0  77849-3 0  9999,2 51887  53.2173   5.6775 0001033 101.4291 105.1883 15.73124586  5628,6728.11,91.538,350.67,349.28,0.0
51887.0,STARLINK-3551,PAYLOAD,2022-03-31 22:00:00,15.73250499,9.940000000000004e-05,53.2172,4.0292,102.3424,193.1581,-0.00022,-0.00031446,0.0,0 STARLINK-3551,1 51887U 22022AM  22090.91667824 -.00031446  00000-0 -22000-3 0  9990,2 51887  53.2172   4.0292 0000994 102.3424 193.1581 15.73250499  3697,6727.751,91.53,350.285,348.94699999999995,0.0
51887.0,STARLINK-3551,PAYLOAD,2022-04-01 06:00:00,15.73228357,8.85e-05,53.2167,2.3808,89.2044,295.2977,-5.0362e-05,-7.689e-05,0.0,0 STARLINK-3551,1 51887U 22022AM  22091.25001157 -.00007689  00000-0 -50362-4 0  9994,2 51887  53.2167   2.3808 0000885  89.2044 295.2977 15.73228357  5722,6727.814,91.532,350.275,349.084,0.0
51887.0,STARLINK-3551,PAYLOAD,2022-04-01 14:00:01,15.73201757,0.0001124,53.217,0.7293,104.7304,8.7406,-0.00016657,-0.00023931,0.0,0 STARLINK-3551,1 51887U 22022AM  22091.58334491 -.00023931  00000-0 -16657-3 0  9996,2 51887  53.2170   0.7293 0001124 104.7304   8.7406 15.73201757  3698,6727.89,91.533,350.511,348.999,0.0
51887.0,STARLINK-3551,PAYLOAD,2022-04-01 20:00:01,15.73196479,0.0001385,53.2173,359.4925,102.7063,347.4567,-0.00043339,-0.00060995,0.0,0 STARLINK-3551,1 51887U 22022AM  22091.83334491 -.00060995  00000-0 -43339-3 0  9992,2 51887  53.2173 359.4925 0001385 102.7063 347.4567 15.73196479  5817,6727.905,91.533,350.702,348.838,0.0
51887.0,STARLINK-3551,PAYLOAD,2022-04-01 22:00:00,15.73168442,0.0001419999999999,53.2173,359.0808,98.4853,103.891,-0.00046135,-0.00064784,0.0,0 STARLINK-3551,1 51887U 22022AM  22091.91667824 -.00064784  00000-0 -46135-3 0  9997,2 51887  53.2173 359.0808 0001420  98.4853 103.8910 15.73168442  3678,6727.985,91.535,350.806,348.895,0.0
51887.0,STARLINK-3551,PAYLOAD,2022-04-02 14:00:01,15.73174002,0.0001258,53.2168,355.781,104.1827,276.0443,0.00023767,0.00032829,0.0,0 STARLINK-3551,1 51887U 22022AM  22092.58335648  .00032829  00000-0  23767-3 0  9996,2 51887  53.2168 355.7810 0001258 104.1827 276.0443 15.73174002  5937,6727.969,91.535,350.681,348.98800000000006,0.0
51887.0,STARLINK-3551,PAYLOAD,2022-04-02 22:00:01,15.73221138,0.0001247,53.2166,354.1329,102.3894,6.7841,-0.00050118,-0.00070434,0.0,0 STARLINK-3551,1 51887U 22022AM  22092.91668981 -.00070434  00000-0 -50118-3 0  9998,2 51887  53.2166 354.1329 0001247 102.3894   6.7841 15.73221138  3699,6727.835,91.532,350.539,348.861,0.0
51887.0,STARLINK-3551,PAYLOAD,2022-04-03 04:00:00,15.73144248,0.0001199,53.2164,352.8971,94.8767,350.9069,0.00020159,0.00027698,0.0,0 STARLINK-3551,1 51887U 22022AM  22093.16667824  .00027698  00000-0  20159-3 0  9995,2 51887  53.2164 352.8971 0001199  94.8767 350.9069 15.73144248  6027,6728.054,91.536,350.726,349.112,0.0
51887.0,STARLINK-3551,PAYLOAD,2022-04-03 14:00:01,15.73135767,0.0001209,53.2163,350.8328,110.2983,176.5731,0.00023154,0.00031909,0.0,0 STARLINK-3551,1 51887U 22022AM  22093.58334491  .00031909  00000-0  23154-3 0  9990,2 51887  53.2163 350.8328 0001209 110.2983 176.5731 15.73135767  6096,6728.078,91.537,350.75699999999995,349.13,0.0
51887.0,STARLINK-3551,PAYLOAD,2022-04-03 22:00:00,15.73140199,0.0001076,53.2166,349.1849,104.7631,270.972,0.00025049,0.00034589,0.0,0 STARLINK-3551,1 51887U 22022AM  22093.91667824  .00034589  00000-0  25049-3 0  9998,2 51887  53.2166 349.1849 0001076 104.7631 270.9720 15.73140199  3693,6728.066,91.537,350.655,349.207,0.0
51887.0,STARLINK-3551,PAYLOAD,2022-04-04 14:00:01,15.73224472,0.0001118,53.216,345.8845,112.036,81.4976,6.186100000000001e-05,8.079e-05,0.0,0 STARLINK-3551,1 51887U 22022AM  22094.58334491  .00008079  00000-0  61861-4 0  9991,2 51887  53.2160 345.8845 0001118 112.0360  81.4976 15.73224472  3712,6727.825,91.532,350.4430000000001,348.93800000000016,0.0
51887.0,STARLINK-3551,PAYLOAD,2022-04-04 22:00:00,15.7323291,0.0001211,53.2159,344.2367,102.7014,179.8068,0.0004043,0.00056584,0.0,0 STARLINK-3551,1 51887U 22022AM  22094.91667824  .00056584  00000-0  40430-3 0  9999,2 51887  53.2159 344.2367 0001211 102.7014 179.8068 15.73232910  6306,6727.801,91.531,350.481,348.852,0.0
51887.0,STARLINK-3551,PAYLOAD,2022-04-05 14:00:01,15.73233083,0.0001261,53.2156,340.9355,112.9958,347.5661,-0.00037387,-0.00052835,0.0,0 STARLINK-3551,1 51887U 22022AM  22095.58335648 -.00052835  00000-0 -37387-3 0  9993,2 51887  53.2156 340.9355 0001261 112.9958 347.5661 15.73233083  3704,6727.801,91.531,350.514,348.81699999999995,0.0
51887.0,STARLINK-3551,PAYLOAD,2022-04-05 16:00:00,15.73223326,0.0001298,53.2159,340.5232,113.8614,98.8643,-0.00048934,-0.00068804,0.0,0 STARLINK-3551,1 51887U 22022AM  22095.66667824 -.00068804  00000-0 -48934-3 0  9999,2 51887  53.2159 340.5232 0001298 113.8614  98.8643 15.73223326  6423,6727.829000000002,91.532,350.56699999999995,348.82,0.0
51887.0,STARLINK-3551,PAYLOAD,2022-04-05 22:00:00,15.73173867,0.0001184,53.2158,339.2877,103.6791,85.7538,-0.00045223,-0.00063538,0.0,0 STARLINK-3551,1 51887U 22022AM  22095.91667824 -.00063538  00000-0 -45223-3 0  9994,2 51887  53.2158 339.2877 0001184 103.6791  85.7538 15.73173867  3709,6727.97,91.535,350.631,349.038,0.0
51887.0,STARLINK-3551,PAYLOAD,2022-04-06 14:00:01,15.73160465,0.0001095,53.2156,335.9871,114.6924,252.4864,0.00074512,0.0010509,0.0,0 STARLINK-3551,1 51887U 22022AM  22096.58334491  .00105090  00000-0  74512-3 0  9990,2 51887  53.2156 335.9871 0001095 114.6924 252.4864 15.73160465  6567,6728.0080000000025,91.535,350.61,349.136,0.0
51887.0,STARLINK-3551,PAYLOAD,2022-04-06 20:00:01,15.73258537,0.0001101,53.2156,334.7514,108.1328,235.7244,-0.00058503,-0.0008213,0.0,0 STARLINK-3551,1 51887U 22022AM  22096.83334491 -.00082130  00000-0 -58503-3 0  9991,2 51887  53.2156 334.7514 0001101 108.1328 235.7244 15.73258537  6601,6727.728,91.53,350.334,348.853,0.0
51887.0,STARLINK-3551,PAYLOAD,2022-04-06 22:00:00,15.73240496,0.0001115,53.2154,334.3396,103.4321,352.6722,-0.00045177,-0.00063653,0.0,0 STARLINK-3551,1 51887U 22022AM  22096.91667824 -.00063653  00000-0 -45177-3 0  9991,2 51887  53.2154 334.3396 0001115 103.4321 352.6722 15.73240496  3690,6727.78,91.531,350.395,348.895,0.0
51887.0,STARLINK-3551,PAYLOAD,2022-04-07 04:00:00,15.73179994,0.0001112,53.2149,333.1026,99.1657,333.6576,0.00062428,0.00087838,0.0,0 STARLINK-3551,1 51887U 22022AM  22097.16667824  .00087838  00000-0  62428-3 0  9996,2 51887  53.2149 333.1026 0001112  99.1657 333.6576 15.73179994  6650,6727.9519999999975,91.534,350.565,349.069,0.0
